{
"type": "FeatureCollection",
"name": "casette_acqua",
"features": [
{ "type": "Feature", "properties": { "fid": 1, "CODICE": "A2ESIT00000000000642", "DENOM": "CAS.ACQUA PZA STAZIONE DI S.PIETRO 11", "GoogleMaps": "https://www.google.com/maps?q=41.896247719646006,12.455064137775592", "lat": 41.896247719645999, "lon": 12.4550641377755 }, "geometry": { "type": "Point", "coordinates": [ 12.4550641, 41.8962477 ] } },
{ "type": "Feature", "properties": { "fid": 2, "CODICE": "A2ESIT00000000013443", "DENOM": "CAS.ACQUA VLE VATICANO SNC", "GoogleMaps": "https://www.google.com/maps?q=41.906787697843995,12.453035202238244", "lat": 41.906787697843903, "lon": 12.453035202238199 }, "geometry": { "type": "Point", "coordinates": [ 12.4530352, 41.9067877 ] } },
{ "type": "Feature", "properties": { "fid": 3, "CODICE": "A2ESIT00000000000640", "DENOM": "CAS.ACQUA VLE DI VIGNA PIA 11", "GoogleMaps": "https://www.google.com/maps?q=41.864591917057574,12.45878771730491", "lat": 41.864591917057503, "lon": 12.458787717304901 }, "geometry": { "type": "Point", "coordinates": [ 12.4587877, 41.8645919 ] } },
{ "type": "Feature", "properties": { "fid": 4, "CODICE": "A2ESIT00000000000355", "DENOM": "CAS.ACQUA VIA GIUSEPPE VANNI 65", "GoogleMaps": "https://www.google.com/maps?q=41.87996604459611,12.360025003207928", "lat": 41.879966044596102, "lon": 12.3600250032079 }, "geometry": { "type": "Point", "coordinates": [ 12.360025, 41.879966 ] } },
{ "type": "Feature", "properties": { "fid": 5, "CODICE": "A2ESIT00000000000649", "DENOM": "CAS.ACQUA LGO GIAMPAOLO BORGHI 6", "GoogleMaps": "https://www.google.com/maps?q=42.00808004331605,12.47979700445401", "lat": 42.008080043315999, "lon": 12.479797004453999 }, "geometry": { "type": "Point", "coordinates": [ 12.479797, 42.00808 ] } },
{ "type": "Feature", "properties": { "fid": 6, "CODICE": "A2ESIT00000000009103", "DENOM": "CAS.ACQUA PZA CARLO ALBERTO SCOTTI SNC", "GoogleMaps": "https://www.google.com/maps?q=41.86975937424825,12.445878300338121", "lat": 41.869759374248197, "lon": 12.4458783003381 }, "geometry": { "type": "Point", "coordinates": [ 12.4458783, 41.8697594 ] } },
{ "type": "Feature", "properties": { "fid": 7, "CODICE": "A2ESIT00000000009908", "DENOM": "CAS.ACQUA PLE DEI QUATTRO VENTI SNC", "GoogleMaps": "https://www.google.com/maps?q=41.87811290410908,12.45883989075046", "lat": 41.878112904109003, "lon": 12.458839890750401 }, "geometry": { "type": "Point", "coordinates": [ 12.4588399, 41.8781129 ] } },
{ "type": "Feature", "properties": { "fid": 8, "CODICE": "A2ESIT00000000009383", "DENOM": "CAS.ACQUA VIA MASSA DI SAN GIULIANO 343", "GoogleMaps": "https://www.google.com/maps?q=41.907298571097584,12.690671790889759", "lat": 41.907298571097499, "lon": 12.6906717908897 }, "geometry": { "type": "Point", "coordinates": [ 12.6906718, 41.9072986 ] } },
{ "type": "Feature", "properties": { "fid": 9, "CODICE": "A2ESIT00000000009384", "DENOM": "CAS.ACQUA VIA ALVARO DEL PORTILLO 100", "GoogleMaps": "https://www.google.com/maps?q=41.766961830261444,12.470321485104215", "lat": 41.766961830261401, "lon": 12.470321485104201 }, "geometry": { "type": "Point", "coordinates": [ 12.4703215, 41.7669618 ] } },
{ "type": "Feature", "properties": { "fid": 10, "CODICE": "A2ESIT00000000009907", "DENOM": "CAS.ACQUA LGO FRATELLI LUMIERE SNC", "GoogleMaps": "https://www.google.com/maps?q=41.960257069193396,12.536526540089085", "lat": 41.960257069193403, "lon": 12.536526540089 }, "geometry": { "type": "Point", "coordinates": [ 12.5365265, 41.9602571 ] } },
{ "type": "Feature", "properties": { "fid": 11, "CODICE": "A2ESIT00000000000342", "DENOM": "CAS.ACQUA VLE GIULIO CESARE 151", "GoogleMaps": "https://www.google.com/maps?q=41.90931405987992,12.458300764253071", "lat": 41.909314059879897, "lon": 12.458300764253 }, "geometry": { "type": "Point", "coordinates": [ 12.4583008, 41.9093141 ] } },
{ "type": "Feature", "properties": { "fid": 12, "CODICE": "A2ESIT00000000004384", "DENOM": "CAS.ACQUA PZA ANNIBALIANO SNC", "GoogleMaps": "https://www.google.com/maps?q=41.92404672855522,12.51609221040593", "lat": 41.924046728555197, "lon": 12.516092210405899 }, "geometry": { "type": "Point", "coordinates": [ 12.5160922, 41.9240467 ] } },
{ "type": "Feature", "properties": { "fid": 13, "CODICE": "A2ESIT00000000010763", "DENOM": "CAS.ACQUA VIA MONTICHIARI 117", "GoogleMaps": "https://www.google.com/maps?q=41.99182887925274,12.47898690214173", "lat": 41.991828879252701, "lon": 12.478986902141701 }, "geometry": { "type": "Point", "coordinates": [ 12.4789869, 41.9918289 ] } },
{ "type": "Feature", "properties": { "fid": 14, "CODICE": "A2ESIT00000000013444", "DENOM": "CAS.ACQUA PZA DELLA CITTA' LEONINA SNC", "GoogleMaps": "https://www.google.com/maps?q=41.90342219521474,12.458496238939157", "lat": 41.903422195214702, "lon": 12.4584962389391 }, "geometry": { "type": "Point", "coordinates": [ 12.4584962, 41.9034222 ] } },
{ "type": "Feature", "properties": { "fid": 15, "CODICE": "A2ESIT00000000002347", "DENOM": "CAS.ACQUA VIA OSTIENSE 159", "GoogleMaps": "https://www.google.com/maps?q=41.86216187900481,12.479147004058634", "lat": 41.862161879004802, "lon": 12.4791470040586 }, "geometry": { "type": "Point", "coordinates": [ 12.479147, 41.8621619 ] } },
{ "type": "Feature", "properties": { "fid": 16, "CODICE": "A2ESIT00000000000475", "DENOM": "CAS.ACQUA VIA FRA' ALBENZIO 12", "GoogleMaps": "https://www.google.com/maps?q=41.907436570913255,12.448252408327912", "lat": 41.907436570913198, "lon": 12.4482524083279 }, "geometry": { "type": "Point", "coordinates": [ 12.4482524, 41.9074366 ] } },
{ "type": "Feature", "properties": { "fid": 17, "CODICE": "A2ESIT00000000000946", "DENOM": "CAS.ACQUA VIA PESCAGLIA 31", "GoogleMaps": "https://www.google.com/maps?q=41.847927043658686,12.45964700515323", "lat": 41.847927043658601, "lon": 12.459647005153199 }, "geometry": { "type": "Point", "coordinates": [ 12.459647, 41.847927 ] } },
{ "type": "Feature", "properties": { "fid": 18, "CODICE": "A2ESIT00000000000643", "DENOM": "CAS.ACQUA VIA TENUTA DI TORRENOVA 143", "GoogleMaps": "https://www.google.com/maps?q=41.85906879143612,12.62069047158025", "lat": 41.859068791436101, "lon": 12.6206904715802 }, "geometry": { "type": "Point", "coordinates": [ 12.6206905, 41.8590688 ] } },
{ "type": "Feature", "properties": { "fid": 19, "CODICE": "A2ESIT00000000000476", "DENOM": "CAS.ACQUA PZA DEL COLOSSEO 21", "GoogleMaps": "https://www.google.com/maps?q=41.891359270660935,12.491029363952533", "lat": 41.891359270660899, "lon": 12.491029363952499 }, "geometry": { "type": "Point", "coordinates": [ 12.4910294, 41.8913593 ] } },
{ "type": "Feature", "properties": { "fid": 20, "CODICE": "A2ESIT00000000000639", "DENOM": "CAS.ACQUA VIA ALBERTO BERGAMINI 5", "GoogleMaps": "https://www.google.com/maps?q=41.905875043018085,12.55353600194152", "lat": 41.905875043018, "lon": 12.553536001941501 }, "geometry": { "type": "Point", "coordinates": [ 12.553536, 41.905875 ] } },
{ "type": "Feature", "properties": { "fid": 21, "CODICE": "A2ESIT00000000000641", "DENOM": "CAS.ACQUA VIA VIRGILIO TALLI 100", "GoogleMaps": "https://www.google.com/maps?q=41.96515004422877,12.520688000512777", "lat": 41.965150044228707, "lon": 12.520688000512701 }, "geometry": { "type": "Point", "coordinates": [ 12.520688, 41.96515 ] } },
{ "type": "Feature", "properties": { "fid": 22, "CODICE": "A2ESIT00000000008844", "DENOM": "CAS.ACQUA VLE RATTO DELLE SABINE 5", "GoogleMaps": "https://www.google.com/maps?q=41.94616106376924,12.601199913368648", "lat": 41.946161063769203, "lon": 12.6011999133686 }, "geometry": { "type": "Point", "coordinates": [ 12.6011999, 41.9461611 ] } },
{ "type": "Feature", "properties": { "fid": 23, "CODICE": "A2ESIT00000000008883", "DENOM": "CAS.ACQUA LGO LUDOVICO QUARONI SNC", "GoogleMaps": "https://www.google.com/maps?q=41.87033481609144,12.40769146887237", "lat": 41.8703348160914, "lon": 12.407691468872301 }, "geometry": { "type": "Point", "coordinates": [ 12.4076915, 41.8703348 ] } },
{ "type": "Feature", "properties": { "fid": 24, "CODICE": "A2ESIT00000000000568", "DENOM": "CAS.ACQUA VIA PIETRO DE COUBERTIN 12", "GoogleMaps": "https://www.google.com/maps?q=41.929799251975915,12.473575945935426", "lat": 41.929799251975901, "lon": 12.4735759459354 }, "geometry": { "type": "Point", "coordinates": [ 12.4735759, 41.9297993 ] } },
{ "type": "Feature", "properties": { "fid": 25, "CODICE": "A2ESIT00000000010264", "DENOM": "CAS.ACQUA VIA ARQUATA DEL TRONTO SNC", "GoogleMaps": "https://www.google.com/maps?q=41.9405029513318,12.585986235455922", "lat": 41.940502951331801, "lon": 12.5859862354559 }, "geometry": { "type": "Point", "coordinates": [ 12.5859862, 41.940503 ] } },
{ "type": "Feature", "properties": { "fid": 26, "CODICE": "A2ESIT00000000011443", "DENOM": "CAS.ACQUA VIA SACRA SNC", "GoogleMaps": "https://www.google.com/maps?q=41.88988641752043,12.490280167327082", "lat": 41.889886417520401, "lon": 12.490280167327001 }, "geometry": { "type": "Point", "coordinates": [ 12.4902802, 41.8898864 ] } },
{ "type": "Feature", "properties": { "fid": 27, "CODICE": "A2ESIT00000000005843", "DENOM": "CAS.ACQUA VIA CELIO VIBENNA SNC", "GoogleMaps": "https://www.google.com/maps?q=41.889484743675446,12.491826649756606", "lat": 41.889484743675403, "lon": 12.4918266497566 }, "geometry": { "type": "Point", "coordinates": [ 12.4918266, 41.8894847 ] } },
{ "type": "Feature", "properties": { "fid": 28, "CODICE": "A2ESIT00000000010804", "DENOM": "CAS.ACQUA LGO PIETRO TACCHI VENTURI SNC", "GoogleMaps": "https://www.google.com/maps?q=41.867450048442585,12.525768966504907", "lat": 41.867450048442493, "lon": 12.5257689665049 }, "geometry": { "type": "Point", "coordinates": [ 12.525769, 41.86745 ] } },
{ "type": "Feature", "properties": { "fid": 29, "CODICE": "A2ESIT00000000010808", "DENOM": "CAS.ACQUA PZA G.G.BELLI SNC", "GoogleMaps": "https://www.google.com/maps?q=41.889876048606624,12.474375966792785", "lat": 41.889876048606602, "lon": 12.474375966792699 }, "geometry": { "type": "Point", "coordinates": [ 12.474376, 41.889876 ] } },
{ "type": "Feature", "properties": { "fid": 30, "CODICE": "A2ESIT00000000010803", "DENOM": "CAS.ACQUA PZA S.MARIA LIBERATRICE SNC", "GoogleMaps": "https://www.google.com/maps?q=41.88069304988044,12.475599968165598", "lat": 41.880693049880399, "lon": 12.475599968165501 }, "geometry": { "type": "Point", "coordinates": [ 12.4756, 41.880693 ] } },
{ "type": "Feature", "properties": { "fid": 31, "CODICE": "A2ESIT00000000010805", "DENOM": "CAS.ACQUA PZA DI PORTA SAN GIOVANNI SNC", "GoogleMaps": "https://www.google.com/maps?q=41.88669104896949,12.507624967307574", "lat": 41.886691048969404, "lon": 12.5076249673075 }, "geometry": { "type": "Point", "coordinates": [ 12.507625, 41.886691 ] } },
{ "type": "Feature", "properties": { "fid": 32, "CODICE": "A2ESIT00000000010806", "DENOM": "CAS.ACQUA VLE DI SAN PAOLO SNC", "GoogleMaps": "https://www.google.com/maps?q=41.85868905007798,12.47455596895107", "lat": 41.858689050077899, "lon": 12.474555968951 }, "geometry": { "type": "Point", "coordinates": [ 12.474556, 41.8586891 ] } },
{ "type": "Feature", "properties": { "fid": 33, "CODICE": "A2ESIT00000000010807", "DENOM": "CAS.ACQUA PZA S.CR.GERUSALEMME SNC", "GoogleMaps": "https://www.google.com/maps?q=41.88796604936709,12.514550967622373", "lat": 41.887966049367002, "lon": 12.5145509676223 }, "geometry": { "type": "Point", "coordinates": [ 12.514551, 41.887966 ] } },
{ "type": "Feature", "properties": { "fid": 34, "CODICE": "A2ESIT00000000010811", "DENOM": "CAS.ACQUA PZA DEL RISORGIMENTO 1", "GoogleMaps": "https://www.google.com/maps?q=41.906241048362304,12.457150967279434", "lat": 41.906241048362297, "lon": 12.4571509672794 }, "geometry": { "type": "Point", "coordinates": [ 12.457151, 41.906241 ] } },
{ "type": "Feature", "properties": { "fid": 35, "CODICE": "A2ESIT00000000003703", "DENOM": "CAS.ACQUA PZA DEGLI EUGANEI SNC", "GoogleMaps": "https://www.google.com/maps?q=41.94881657256028,12.532455310365748", "lat": 41.948816572560197, "lon": 12.5324553103657 }, "geometry": { "type": "Point", "coordinates": [ 12.5324553, 41.9488166 ] } },
{ "type": "Feature", "properties": { "fid": 36, "CODICE": "A2ESIT00000000010905", "DENOM": "CAS.ACQUA VIA PANNONIA SNC", "GoogleMaps": "https://www.google.com/maps?q=41.881775050618884,12.499588856974237", "lat": 41.881775050618799, "lon": 12.499588856974199 }, "geometry": { "type": "Point", "coordinates": [ 12.4995889, 41.8817751 ] } },
{ "type": "Feature", "properties": { "fid": 37, "CODICE": "A2ESIT00000000010744", "DENOM": "CAS.ACQUA VIA RUDERI DI GROTTAROSSA SNC", "GoogleMaps": "https://www.google.com/maps?q=41.9733076704064,12.436889990823172", "lat": 41.9733076704063, "lon": 12.436889990823101 }, "geometry": { "type": "Point", "coordinates": [ 12.43689, 41.9733077 ] } },
{ "type": "Feature", "properties": { "fid": 38, "CODICE": "A2ESIT00000000010812", "DENOM": "CAS.ACQUA VLE ENRICO DE NICOLA SNC", "GoogleMaps": "https://www.google.com/maps?q=41.90257605079062,12.49898196651031", "lat": 41.9025760507906, "lon": 12.4989819665103 }, "geometry": { "type": "Point", "coordinates": [ 12.498982, 41.9025761 ] } },
{ "type": "Feature", "properties": { "fid": 39, "CODICE": "A2ESIT00000000010263", "DENOM": "CAS.ACQUA VIA EFESO 15", "GoogleMaps": "https://www.google.com/maps?q=41.8542202158913,12.475601483280803", "lat": 41.854220215891303, "lon": 12.4756014832808 }, "geometry": { "type": "Point", "coordinates": [ 12.4756015, 41.8542202 ] } },
{ "type": "Feature", "properties": { "fid": 40, "CODICE": "A2ESIT00000000010910", "DENOM": "CAS.ACQUA VIA TORRE ANNUNZIATA SNC", "GoogleMaps": "https://www.google.com/maps?q=41.8909583827589,12.549088856409668", "lat": 41.890958382758903, "lon": 12.5490888564096 }, "geometry": { "type": "Point", "coordinates": [ 12.5490889, 41.8909584 ] } },
{ "type": "Feature", "properties": { "fid": 41, "CODICE": "A2ESIT00000000000947", "DENOM": "CAS.ACQUA VIA DELL'APPAGLIATORE SNC", "GoogleMaps": "https://www.google.com/maps?q=41.73886604282793,12.263329004399909", "lat": 41.738866042827901, "lon": 12.2633290043999 }, "geometry": { "type": "Point", "coordinates": [ 12.263329, 41.738866 ] } },
{ "type": "Feature", "properties": { "fid": 42, "CODICE": "A2ESIT00000000000948", "DENOM": "CAS.ACQUA VLE DI PORTA ARDEATINA 129", "GoogleMaps": "https://www.google.com/maps?q=41.8761573973023,12.483769071248725", "lat": 41.8761573973023, "lon": 12.4837690712487 }, "geometry": { "type": "Point", "coordinates": [ 12.4837691, 41.8761574 ] } },
{ "type": "Feature", "properties": { "fid": 43, "CODICE": "A2ESIT00000000000950", "DENOM": "CAS.ACQUA PZA ORMEA 33", "GoogleMaps": "https://www.google.com/maps?q=41.91611905406221,12.3695684405043", "lat": 41.9161190540622, "lon": 12.369568440504301 }, "geometry": { "type": "Point", "coordinates": [ 12.3695684, 41.9161191 ] } },
{ "type": "Feature", "properties": { "fid": 44, "CODICE": "A2ESIT00000000000427", "DENOM": "CAS.ACQUA VIA TOMMASO FORTIFIOCCA 25", "GoogleMaps": "https://www.google.com/maps?q=41.87132913644594,12.524270152447652", "lat": 41.871329136445901, "lon": 12.524270152447601 }, "geometry": { "type": "Point", "coordinates": [ 12.5242702, 41.8713291 ] } },
{ "type": "Feature", "properties": { "fid": 45, "CODICE": "A2ESIT00000000000647", "DENOM": "CAS.ACQUA PZA ALFONSO CAPECELATRO 12", "GoogleMaps": "https://www.google.com/maps?q=41.92056604318843,12.41596100308302", "lat": 41.920566043188401, "lon": 12.415961003083 }, "geometry": { "type": "Point", "coordinates": [ 12.415961, 41.920566 ] } },
{ "type": "Feature", "properties": { "fid": 46, "CODICE": "A2ESIT00000000000951", "DENOM": "CAS.ACQUA VIA BENEDETTO CROCE 50", "GoogleMaps": "https://www.google.com/maps?q=41.84134104410238,12.484260002283508", "lat": 41.841341044102307, "lon": 12.4842600022835 }, "geometry": { "type": "Point", "coordinates": [ 12.48426, 41.841341 ] } },
{ "type": "Feature", "properties": { "fid": 47, "CODICE": "A2ESIT00000000002722", "DENOM": "CAS.ACQUA LGO MONREALE 26", "GoogleMaps": "https://www.google.com/maps?q=41.86111916701192,12.670864705660119", "lat": 41.861119167011893, "lon": 12.670864705660099 }, "geometry": { "type": "Point", "coordinates": [ 12.6708647, 41.8611192 ] } },
{ "type": "Feature", "properties": { "fid": 48, "CODICE": "A2ESIT00000000009063", "DENOM": "CAS.ACQUA VIA R.RAIMONDI GARIBALDI SNC", "GoogleMaps": "https://www.google.com/maps?q=41.857580028149805,12.491252968480493", "lat": 41.857580028149798, "lon": 12.491252968480399 }, "geometry": { "type": "Point", "coordinates": [ 12.491253, 41.85758 ] } },
{ "type": "Feature", "properties": { "fid": 49, "CODICE": "A2ESIT00000000010906", "DENOM": "CAS.ACQUA VLE ADRIATICO SNC", "GoogleMaps": "https://www.google.com/maps?q=41.94051671815218,12.53632774426476", "lat": 41.940516718152097, "lon": 12.5363277442647 }, "geometry": { "type": "Point", "coordinates": [ 12.5363277, 41.9405167 ] } },
{ "type": "Feature", "properties": { "fid": 50, "CODICE": "A2ESIT00000000000428", "DENOM": "CAS.ACQUA VIA DEI GRANAI DI NERVA SNC", "GoogleMaps": "https://www.google.com/maps?q=41.83375253213069,12.506508823974226", "lat": 41.833752532130603, "lon": 12.506508823974199 }, "geometry": { "type": "Point", "coordinates": [ 12.5065088, 41.8337525 ] } },
{ "type": "Feature", "properties": { "fid": 51, "CODICE": "A2ESIT00000000010911", "DENOM": "CAS.ACQUA VLE MARCO F.NOBILIORE SNC", "GoogleMaps": "https://www.google.com/maps?q=41.85932227309478,12.564586077510508", "lat": 41.859322273094698, "lon": 12.5645860775105 }, "geometry": { "type": "Point", "coordinates": [ 12.5645861, 41.8593223 ] } },
{ "type": "Feature", "properties": { "fid": 52, "CODICE": "A2ESIT00000000000949", "DENOM": "CAS.ACQUA VIA FRANCESCO SAPORI 57", "GoogleMaps": "https://www.google.com/maps?q=41.81115504325714,12.48531700258129", "lat": 41.811155043257102, "lon": 12.485317002581199 }, "geometry": { "type": "Point", "coordinates": [ 12.485317, 41.811155 ] } },
{ "type": "Feature", "properties": { "fid": 53, "CODICE": "A2ESIT00000000002298", "DENOM": "CAS.ACQUA VIA DEL TRULLO 297", "GoogleMaps": "https://www.google.com/maps?q=41.843703057382164,12.437205213578752", "lat": 41.8437030573821, "lon": 12.4372052135787 }, "geometry": { "type": "Point", "coordinates": [ 12.4372052, 41.8437031 ] } },
{ "type": "Feature", "properties": { "fid": 54, "CODICE": "A2ESIT00000000010265", "DENOM": "CAS.ACQUA PZA FEDERICO SACCO SNC", "GoogleMaps": "https://www.google.com/maps?q=41.916687047886114,12.56001074998944", "lat": 41.916687047886107, "lon": 12.5600107499894 }, "geometry": { "type": "Point", "coordinates": [ 12.5600107, 41.916687 ] } },
{ "type": "Feature", "properties": { "fid": 55, "CODICE": "A2ESIT00000000010813", "DENOM": "CAS.ACQUA PLE DI SAN LORENZO SNC", "GoogleMaps": "https://www.google.com/maps?q=41.902658048547195,12.519861967566872", "lat": 41.902658048547103, "lon": 12.519861967566801 }, "geometry": { "type": "Point", "coordinates": [ 12.519862, 41.902658 ] } },
{ "type": "Feature", "properties": { "fid": 56, "CODICE": "A2ESIT00000000010814", "DENOM": "CAS.ACQUA VIA DELLA STAZ.TIBURTINA SNC", "GoogleMaps": "https://www.google.com/maps?q=41.909848050482644,12.52937896784932", "lat": 41.909848050482601, "lon": 12.529378967849301 }, "geometry": { "type": "Point", "coordinates": [ 12.529379, 41.9098481 ] } },
{ "type": "Feature", "properties": { "fid": 57, "CODICE": "A2ESIT00000000010810", "DENOM": "CAS.ACQUA PZA PIA SNC", "GoogleMaps": "https://www.google.com/maps?q=41.90245304874685,12.465178968041092", "lat": 41.9024530487468, "lon": 12.465178968041 }, "geometry": { "type": "Point", "coordinates": [ 12.465179, 41.902453 ] } },
{ "type": "Feature", "properties": { "fid": 58, "CODICE": "A2ESIT00000000000426", "DENOM": "CAS.ACQUA VIA DEGLI IRLANDESI 54", "GoogleMaps": "https://www.google.com/maps?q=41.856797841596496,12.450525771061194", "lat": 41.856797841596403, "lon": 12.4505257710611 }, "geometry": { "type": "Point", "coordinates": [ 12.4505258, 41.8567978 ] } },
{ "type": "Feature", "properties": { "fid": 59, "CODICE": "A2ESIT00000000010743", "DENOM": "CAS.ACQUA VIA DELLA MARATONA 95", "GoogleMaps": "https://www.google.com/maps?q=41.945290676098324,12.459968927861171", "lat": 41.945290676098303, "lon": 12.4599689278611 }, "geometry": { "type": "Point", "coordinates": [ 12.4599689, 41.9452907 ] } }
]
}
