{
"type": "FeatureCollection",
"name": "ParchiAffaccio",
"features": [
{ "type": "Feature", "properties": { "fid": 1, "NOME": "Lungotevere delle Navi", "SPONDA": "sinistra", "SUPERFICIE": 5.5, "NOTE": "Ex oasi WWF; camminamento in legno 570m", "INDICE": 0.83, "GOOGLEMAPS": "https://www.google.com/maps/search/?api=1&query=Parco+affaccio+Lungotevere+delle+Navi+Roma" }, "geometry": { "type": "Polygon", "coordinates": [ [ [ 12.4714728, 41.914871 ], [ 12.4713998, 41.9152824 ], [ 12.4713398, 41.915844 ], [ 12.471339, 41.9159834 ], [ 12.4713584, 41.9165706 ], [ 12.4713976, 41.9167726 ], [ 12.4714814, 41.9171036 ], [ 12.471605, 41.9176234 ], [ 12.4716358, 41.9178605 ], [ 12.4716508, 41.9183788 ], [ 12.471617, 41.9186357 ], [ 12.4713762, 41.9186321 ], [ 12.4713729, 41.9183568 ], [ 12.4713715, 41.917972 ], [ 12.4713393, 41.917711 ], [ 12.4712567, 41.9173492 ], [ 12.4710904, 41.9167155 ], [ 12.4710571, 41.9165401 ], [ 12.4710114, 41.9162029 ], [ 12.4710195, 41.9159393 ], [ 12.4710415, 41.9156212 ], [ 12.471109, 41.9152883 ], [ 12.4711994, 41.9148527 ], [ 12.4714728, 41.914871 ] ] ] } },
{ "type": "Feature", "properties": { "fid": 2, "NOME": "Oasi Ponte Milvio", "SPONDA": "destra", "SUPERFICIE": 6.5, "NOTE": "Area golenale destra tra Ponte Milvio e Ponte Flaminio", "INDICE": 0.66, "GOOGLEMAPS": "https://www.google.com/maps/search/?api=1&query=Oasi+Ponte+Milvio+Tevere+Roma" }, "geometry": { "type": "Polygon", "coordinates": [ [ [ 12.4668189, 41.9360722 ], [ 12.466932, 41.9360849 ], [ 12.4670783, 41.9360472 ], [ 12.46725, 41.9360598 ], [ 12.4674366, 41.9360434 ], [ 12.4675803, 41.9360729 ], [ 12.4676688, 41.9361129 ], [ 12.4677949, 41.9360923 ], [ 12.467913, 41.9360744 ], [ 12.4680484, 41.9361154 ], [ 12.4682719, 41.9361057 ], [ 12.4685726, 41.936124 ], [ 12.4686246, 41.9361471 ], [ 12.4687699, 41.9361357 ], [ 12.4689863, 41.9362048 ], [ 12.469197, 41.936224 ], [ 12.4694065, 41.9361731 ], [ 12.4696116, 41.9362332 ], [ 12.4697349, 41.9362827 ], [ 12.4698993, 41.9362834 ], [ 12.4700982, 41.9363024 ], [ 12.4703761, 41.936402 ], [ 12.4705828, 41.9364212 ], [ 12.4709684, 41.9364706 ], [ 12.4712633, 41.9364391 ], [ 12.471367, 41.9364882 ], [ 12.4712908, 41.9371296 ], [ 12.4709033, 41.9370772 ], [ 12.470513, 41.9370481 ], [ 12.4690806, 41.9368645 ], [ 12.4681371, 41.9367166 ], [ 12.467549, 41.9366174 ], [ 12.4674795, 41.9364931 ], [ 12.4674593, 41.9363596 ], [ 12.4667575, 41.9362404 ], [ 12.4667706, 41.9362056 ], [ 12.4668189, 41.9360722 ] ] ] } },
{ "type": "Feature", "properties": { "fid": 3, "NOME": "Prati dell'Acqua Acetosa", "SPONDA": "sinistra", "SUPERFICIE": 8.5, "NOTE": "Confluenza Aniene-Tevere; 8.5 ha; rimossi insediamenti abusivi", "INDICE": 0.74, "GOOGLEMAPS": "https://www.google.com/maps/search/?api=1&query=Prati+Acqua+Acetosa+Tevere+Roma" }, "geometry": { "type": "Polygon", "coordinates": [ [ [ 12.4878051, 41.9398424 ], [ 12.4884599, 41.9400302 ], [ 12.4889424, 41.9401709 ], [ 12.4894719, 41.9402953 ], [ 12.4903381, 41.940427 ], [ 12.4906341, 41.940286 ], [ 12.4910448, 41.9401822 ], [ 12.491052, 41.9402951 ], [ 12.4916953, 41.9404827 ], [ 12.4928145, 41.9406806 ], [ 12.4934837, 41.9407993 ], [ 12.4950215, 41.9409891 ], [ 12.4964811, 41.941099 ], [ 12.4964617, 41.941593 ], [ 12.4960889, 41.9416196 ], [ 12.495109, 41.9417196 ], [ 12.4943419, 41.9417289 ], [ 12.4936593, 41.9416533 ], [ 12.4932746, 41.9416882 ], [ 12.4923452, 41.9416853 ], [ 12.4916429, 41.9415225 ], [ 12.4908449, 41.9414269 ], [ 12.4900894, 41.9414364 ], [ 12.4888565, 41.9411753 ], [ 12.4879267, 41.940886 ], [ 12.4871728, 41.9405572 ], [ 12.4878051, 41.9398424 ] ] ] } },
{ "type": "Feature", "properties": { "fid": 4, "NOME": "Parco Foro Italico", "SPONDA": "destra", "SUPERFICIE": 1.6, "NOTE": "Riva destra tra Ponte Milvio e Ponte Duca d'Aosta; area fitness", "INDICE": 0.42, "GOOGLEMAPS": "https://www.google.com/maps/search/?api=1&query=Parco+affaccio+Foro+Italico+Tevere+Roma" }, "geometry": { "type": "Polygon", "coordinates": [ [ [ 12.4604154, 41.931514 ], [ 12.4605696, 41.9316468 ], [ 12.4608293, 41.931958 ], [ 12.4610476, 41.9322515 ], [ 12.4613587, 41.9325748 ], [ 12.4616971, 41.9329001 ], [ 12.4621325, 41.9333226 ], [ 12.4620804, 41.9333522 ], [ 12.4619503, 41.9335005 ], [ 12.4613743, 41.9329953 ], [ 12.4606771, 41.9324888 ], [ 12.4604493, 41.9323098 ], [ 12.4602808, 41.9321432 ], [ 12.460065, 41.9319082 ], [ 12.4599105, 41.9317075 ], [ 12.4604154, 41.931514 ] ] ] } },
{ "type": "Feature", "properties": { "fid": 5, "NOME": "Parco Ostia Antica", "SPONDA": "sinistra", "SUPERFICIE": 1.5, "NOTE": "1.5 ha; percorso ciclopedonale ad anello 700m; pontile battelli", "INDICE": 0.66, "GOOGLEMAPS": "https://www.google.com/maps/search/?api=1&query=Parco+affaccio+Ostia+Antica+Tevere+Roma" }, "geometry": { "type": "Polygon", "coordinates": [ [ [ 12.2879329, 41.7568147 ], [ 12.2878916, 41.7569698 ], [ 12.2873263, 41.7570519 ], [ 12.2872356, 41.7567288 ], [ 12.2871006, 41.7564957 ], [ 12.2869259, 41.7562444 ], [ 12.2865421, 41.7558667 ], [ 12.2862109, 41.755616 ], [ 12.2860291, 41.7555314 ], [ 12.2856998, 41.7553924 ], [ 12.2854119, 41.7552994 ], [ 12.2852724, 41.7552766 ], [ 12.2848907, 41.7552117 ], [ 12.2842585, 41.7551285 ], [ 12.2843657, 41.754784 ], [ 12.284468, 41.7546943 ], [ 12.2848009, 41.7547651 ], [ 12.2849505, 41.7547903 ], [ 12.2852961, 41.7548353 ], [ 12.2859451, 41.7551044 ], [ 12.2861291, 41.7551695 ], [ 12.2861543, 41.7551223 ], [ 12.286413, 41.7553063 ], [ 12.2864674, 41.7553206 ], [ 12.2865837, 41.7554459 ], [ 12.286818, 41.7556249 ], [ 12.2873973, 41.7562067 ], [ 12.2876149, 41.7564743 ], [ 12.2878544, 41.7567347 ], [ 12.2879329, 41.7568147 ] ] ] } },
{ "type": "Feature", "properties": { "fid": 6, "NOME": "Marconi", "SPONDA": "destra", "SUPERFICIE": 3.5, "NOTE": "Area golenale sponda destra tra Lungotevere di Pietra Papa e Ponte Marconi; area giochi, fitness, area cani, punto ristoro", "INDICE": 0.51, "GOOGLEMAPS": "https://www.google.com/maps/search/?api=1&query=Parco+Tevere+Marconi+Roma" }, "geometry": { "type": "Polygon", "coordinates": [ [ [ 12.4684727, 41.8589102 ], [ 12.4684733, 41.858817 ], [ 12.468941, 41.8588352 ], [ 12.469393, 41.85881 ], [ 12.4696664, 41.8588171 ], [ 12.4703507, 41.8588208 ], [ 12.4704113, 41.8588267 ], [ 12.4704742, 41.8588497 ], [ 12.4705264, 41.8588759 ], [ 12.4705422, 41.8589399 ], [ 12.4705646, 41.8589881 ], [ 12.4704918, 41.8592151 ], [ 12.4704468, 41.8593914 ], [ 12.4703612, 41.8597102 ], [ 12.4703189, 41.8597036 ], [ 12.4700195, 41.8596606 ], [ 12.4691843, 41.8595694 ], [ 12.4684726, 41.8595298 ], [ 12.4684727, 41.8589102 ] ] ] } },
{ "type": "Feature", "properties": { "fid": 7, "NOME": "Magliana", "SPONDA": "destra", "SUPERFICIE": 9.0, "NOTE": "Area golenale sponda destra da Ponte della Magliana a via dell'Impruneta; anfiteatro, area giochi, fitness, area cani", "INDICE": 0.48, "GOOGLEMAPS": "https://www.google.com/maps/search/?api=1&query=Parco+Tevere+Magliana+Roma" }, "geometry": { "type": "Polygon", "coordinates": [ [ [ 12.474804, 41.862929 ], [ 12.4747868, 41.8629317 ], [ 12.4747611, 41.8629078 ], [ 12.4746987, 41.8628507 ], [ 12.4745422, 41.8627219 ], [ 12.4741099, 41.8624009 ], [ 12.4738128, 41.8622216 ], [ 12.4736773, 41.8621867 ], [ 12.4736774, 41.8621469 ], [ 12.4730723, 41.8618312 ], [ 12.4724359, 41.8615773 ], [ 12.4717535, 41.8614099 ], [ 12.47082, 41.8612461 ], [ 12.4704603, 41.8611904 ], [ 12.4703864, 41.8611342 ], [ 12.4705195, 41.8606914 ], [ 12.4709183, 41.860682 ], [ 12.4712684, 41.8607148 ], [ 12.4717829, 41.8608193 ], [ 12.4723256, 41.8609404 ], [ 12.4730311, 41.861139 ], [ 12.473349, 41.8612165 ], [ 12.4735716, 41.8612783 ], [ 12.4738007, 41.8613333 ], [ 12.4739474, 41.8613911 ], [ 12.474177, 41.8614326 ], [ 12.4744139, 41.8615196 ], [ 12.4746249, 41.8616073 ], [ 12.4750679, 41.8617898 ], [ 12.4757608, 41.8621916 ], [ 12.4754667, 41.8624751 ], [ 12.4754126, 41.8626149 ], [ 12.474804, 41.862929 ] ] ] } }
]
}
