{
"type": "FeatureCollection",
"name": "piscine",
"features": [
{ "type": "Feature", "properties": { "fid": 1, "NOME": "Circolo Montecitorio", "INDIRIZZO": "Via dei Campi Sportivi, 5, Roma", "MUNICIPIO": "II", "GIORNI_AP7": "22 giu - 31 ago", "ORARIO_70": "da confermare al n. verde 800 957 774", "TELEFONO": "06 8084776", "EMAIL": "info@circolomontecitorio.it", "SITO_WEB": "https://www.circolomontecitorio.it", "LAT": 41.93, "LON": 12.49, "GOOGLEMAPS": "https://www.google.com/maps/search/?api=1&query=Circolo+Montecitorio+Via+dei+Campi+Sportivi+5%2C+Roma" }, "geometry": { "type": "Point", "coordinates": [ 12.4885986, 41.9335197 ] } },
{ "type": "Feature", "properties": { "fid": 2, "NOME": "Aquaniene", "INDIRIZZO": "Viale della Moschea, 130, Roma", "MUNICIPIO": "II", "GIORNI_AP7": "22 giu - 31 ago", "ORARIO_70": "da confermare al n. verde 800 957 774", "TELEFONO": "06 8084059", "EMAIL": "info@aquaniene.it", "SITO_WEB": "https://www.aquaniene.it", "LAT": 41.93, "LON": 12.49, "GOOGLEMAPS": "https://www.google.com/maps/search/?api=1&query=Aquaniene+Viale+della+Moschea+130%2C+Roma" }, "geometry": { "type": "Point", "coordinates": [ 12.492257, 41.9327765 ] } },
{ "type": "Feature", "properties": { "fid": 3, "NOME": "Maximo Sport & Fitness", "INDIRIZZO": "Via di Casal Boccone, 283, Roma", "MUNICIPIO": "III", "GIORNI_AP7": "22 giu - 31 ago", "ORARIO_70": "da confermare al n. verde 800 957 774", "TELEFONO": "06 88805808", "EMAIL": "desk@maximogreen.it", "SITO_WEB": "https://www.maximogreen.it", "LAT": 41.97, "LON": 12.55, "GOOGLEMAPS": "https://www.google.com/maps/search/?api=1&query=Maximo+Sport+Fitness+Via+Casal+Boccone+283%2C+Roma" }, "geometry": { "type": "Point", "coordinates": [ 12.5529137, 41.965326 ] } },
{ "type": "Feature", "properties": { "fid": 4, "NOME": "Fulvio Bernardini", "INDIRIZZO": "Via dell'Acqua Marcia, 51, Roma", "MUNICIPIO": "IV", "GIORNI_AP7": "22 giu - 31 ago", "ORARIO_70": "da confermare al n. verde 800 957 774", "TELEFONO": "06 4182111", "EMAIL": "infopiscina.roma@uisp.it", "SITO_WEB": "https://www.fulviobernardiniuisp.com", "LAT": 41.92, "LON": 12.56, "GOOGLEMAPS": "https://www.google.com/maps/search/?api=1&query=Fulvio+Bernardini+Via+Acqua+Marcia+51%2C+Roma" }, "geometry": { "type": "Point", "coordinates": [ 12.5566951, 41.9203055 ] } },
{ "type": "Feature", "properties": { "fid": 5, "NOME": "T4 Tennis Club", "INDIRIZZO": "Viale Rousseau, 80, Roma", "MUNICIPIO": "III", "GIORNI_AP7": "22 giu - 31 ago", "ORARIO_70": "da confermare al n. verde 800 957 774", "TELEFONO": "329 0688512", "EMAIL": "n.d.", "SITO_WEB": "n.d.", "LAT": 41.94, "LON": 12.55, "GOOGLEMAPS": "https://www.google.com/maps/search/?api=1&query=T4+Tennis+Club+Viale+Rousseau+80%2C+Roma" }, "geometry": { "type": "Point", "coordinates": [ 12.5541569, 41.938644 ] } },
{ "type": "Feature", "properties": { "fid": 6, "NOME": "Aquatibur", "INDIRIZZO": "Via del Frantoio, 8, Roma", "MUNICIPIO": "IV", "GIORNI_AP7": "22 giu - 31 ago", "ORARIO_70": "da confermare al n. verde 800 957 774", "TELEFONO": "06 40501013", "EMAIL": "aquatibur@gmail.com", "SITO_WEB": "https://www.aquatibur.com", "LAT": 41.91, "LON": 12.56, "GOOGLEMAPS": "https://www.google.com/maps/search/?api=1&query=Aquatibur+Via+del+Frantoio+8%2C+Roma" }, "geometry": { "type": "Point", "coordinates": [ 12.5615509, 41.9124874 ] } },
{ "type": "Feature", "properties": { "fid": 7, "NOME": "Villa De Sanctis", "INDIRIZZO": "Via dei Gordiani, 5, Roma", "MUNICIPIO": "V", "GIORNI_AP7": "22 giu - 31 ago", "ORARIO_70": "da confermare al n. verde 800 957 774", "TELEFONO": "06 24408515", "EMAIL": "villadesanctis@gmail.com", "SITO_WEB": "https://www.villadesanctis.it", "LAT": 41.88, "LON": 12.55, "GOOGLEMAPS": "https://www.google.com/maps/search/?api=1&query=Villa+De+Sanctis+Via+dei+Gordiani+5%2C+Roma" }, "geometry": { "type": "Point", "coordinates": [ 12.5520405, 41.8791887 ] } },
{ "type": "Feature", "properties": { "fid": 8, "NOME": "Piscina Comunale Roma 70", "INDIRIZZO": "Via di Tor Bella Monaca, snc, Roma", "MUNICIPIO": "VI", "GIORNI_AP7": "22 giu - 31 ago", "ORARIO_70": "da confermare al n. verde 800 957 774", "TELEFONO": "06 32092146", "EMAIL": "n.d.", "SITO_WEB": "n.d.", "LAT": 41.88, "LON": 12.63, "GOOGLEMAPS": "https://www.google.com/maps/search/?api=1&query=Piscina+Comunale+Roma+70+Via+Tor+Bella+Monaca%2C+Roma" }, "geometry": { "type": "Point", "coordinates": [ 12.6280865, 41.8764312 ] } },
{ "type": "Feature", "properties": { "fid": 9, "NOME": "To Live Sports Center", "INDIRIZZO": "Via Aristide Leonori, 8, Roma", "MUNICIPIO": "IX", "GIORNI_AP7": "22 giu - 31 ago", "ORARIO_70": "da confermare al n. verde 800 957 774", "TELEFONO": "06 5415467", "EMAIL": "info@tolivesport.it", "SITO_WEB": "https://www.tolivesport.it", "LAT": 41.85, "LON": 12.49, "GOOGLEMAPS": "https://www.google.com/maps/search/?api=1&query=To+Live+Sports+Center+Via+Aristide+Leonori+8%2C+Roma" }, "geometry": { "type": "Point", "coordinates": [ 12.4865348, 41.8503193 ] } },
{ "type": "Feature", "properties": { "fid": 10, "NOME": "Mario Tobia", "INDIRIZZO": "Lungotevere Dante, 311, Roma", "MUNICIPIO": "XI", "GIORNI_AP7": "22 giu - 31 ago", "ORARIO_70": "da confermare al n. verde 800 957 774", "TELEFONO": "06 5565081", "EMAIL": "n.d.", "SITO_WEB": "n.d.", "LAT": 41.85, "LON": 12.46, "GOOGLEMAPS": "https://www.google.com/maps/search/?api=1&query=Mario+Tobia+Lungotevere+Dante+311%2C+Roma" }, "geometry": { "type": "Point", "coordinates": [ 12.4614277, 41.8541192 ] } },
{ "type": "Feature", "properties": { "fid": 11, "NOME": "Fonte Roma Eur", "INDIRIZZO": "Via Andrea Meldola, 157, Roma", "MUNICIPIO": "IX", "GIORNI_AP7": "22 giu - 31 ago", "ORARIO_70": "da confermare al n. verde 800 957 774", "TELEFONO": "06 5038585", "EMAIL": "info@fonteromaeur.com", "SITO_WEB": "https://www.fonteromaeur.com", "LAT": 41.82, "LON": 12.51, "GOOGLEMAPS": "https://www.google.com/maps/search/?api=1&query=Fonte+Roma+Eur+Via+Andrea+Meldola+157%2C+Roma" }, "geometry": { "type": "Point", "coordinates": [ 12.5099066, 41.824152 ] } },
{ "type": "Feature", "properties": { "fid": 12, "NOME": "Ferratella Sporting Club", "INDIRIZZO": "Via Salvatore Quasimodo, 124, Roma", "MUNICIPIO": "IX", "GIORNI_AP7": "22 giu - 31 ago", "ORARIO_70": "da confermare al n. verde 800 957 774", "TELEFONO": "06 5004740", "EMAIL": "segreteria@ferratella.it", "SITO_WEB": "https://www.ferratella.it", "LAT": 41.82, "LON": 12.46, "GOOGLEMAPS": "https://www.google.com/maps/search/?api=1&query=Ferratella+Sporting+Club+Via+Quasimodo+124%2C+Roma" }, "geometry": { "type": "Point", "coordinates": [ 12.4635676, 41.8151407 ] } },
{ "type": "Feature", "properties": { "fid": 13, "NOME": "Sporting Club Ostiense", "INDIRIZZO": "Via del Mare, 128, Roma", "MUNICIPIO": "XI", "GIORNI_AP7": "22 giu - 31 ago", "ORARIO_70": "da confermare al n. verde 800 957 774", "TELEFONO": "392 4689914", "EMAIL": "info@piscina-roma.it", "SITO_WEB": "https://www.piscina-roma.it", "LAT": 41.84, "LON": 12.47, "GOOGLEMAPS": "https://www.google.com/maps/search/?api=1&query=Sporting+Club+Ostiense+Via+del+Mare+128%2C+Roma" }, "geometry": { "type": "Point", "coordinates": [ 12.4670787, 41.8440079 ] } },
{ "type": "Feature", "properties": { "fid": 14, "NOME": "Le Cupole", "INDIRIZZO": "Via Gino Bonichi, 17, Acilia, Roma", "MUNICIPIO": "X", "GIORNI_AP7": "22 giu - 31 ago", "ORARIO_70": "da confermare al n. verde 800 957 774", "TELEFONO": "06 5236 2072", "EMAIL": "info@lecupole.it", "SITO_WEB": "https://www.lecupole.it", "LAT": 41.78, "LON": 12.36, "GOOGLEMAPS": "https://www.google.com/maps/search/?api=1&query=Le+Cupole+Via+Gino+Bonichi+17+Acilia%2C+Roma" }, "geometry": { "type": "Point", "coordinates": [ 12.3569153, 41.7793736 ] } },
{ "type": "Feature", "properties": { "fid": 15, "NOME": "Arvalia Nuoto", "INDIRIZZO": "Via dei Rinuccini, 75, Roma", "MUNICIPIO": "XII", "GIORNI_AP7": "22 giu - 31 ago", "ORARIO_70": "da confermare al n. verde 800 957 774", "TELEFONO": "06 9558 5669", "EMAIL": "infoarvalianuoto@gmail.com", "SITO_WEB": "https://www.arvalianuoto.it", "LAT": 41.85, "LON": 12.42, "GOOGLEMAPS": "https://www.google.com/maps/search/?api=1&query=Arvalia+Nuoto+Via+dei+Rinuccini+75%2C+Roma" }, "geometry": { "type": "Point", "coordinates": [ 12.415699, 41.850836 ] } },
{ "type": "Feature", "properties": { "fid": 16, "NOME": "Piscina Comunale Via Bravetta", "INDIRIZZO": "Via di Bravetta, 539, Roma", "MUNICIPIO": "XII", "GIORNI_AP7": "22 giu - 31 ago", "ORARIO_70": "da confermare al n. verde 800 957 774", "TELEFONO": "06 66160985", "EMAIL": "info@juventusnuoto.net", "SITO_WEB": "https://www.juventusnuoto.net", "LAT": 41.87, "LON": 12.42, "GOOGLEMAPS": "https://www.google.com/maps/search/?api=1&query=Piscina+Comunale+Via+Bravetta+539%2C+Roma" }, "geometry": { "type": "Point", "coordinates": [ 12.4235506, 41.8733986 ] } },
{ "type": "Feature", "properties": { "fid": 17, "NOME": "Arena Altero Felici", "INDIRIZZO": "Via dei Due Ponti, 1, Roma", "MUNICIPIO": "XV", "GIORNI_AP7": "22 giu - 31 ago", "ORARIO_70": "da confermare al n. verde 800 957 774", "TELEFONO": "06 5656 7684", "EMAIL": "n.d.", "SITO_WEB": "https://www.stellazzurra.it", "LAT": 41.95, "LON": 12.48, "GOOGLEMAPS": "https://www.google.com/maps/search/?api=1&query=Arena+Altero+Felici+Via+Due+Ponti+1%2C+Roma" }, "geometry": { "type": "Point", "coordinates": [ 12.4821749, 41.9547715 ] } }
]
}
