{
"type": "FeatureCollection",
"name": "spiagge",
"features": [
{ "type": "Feature", "properties": { "fid": 1, "NOME": "Spiaggia Libera Grigia", "INDIRIZZO": "Lungomare Duca degli Abruzzi, civ. 72", "ZONA": "Ostia Ponente", "LAT": 41.74, "LON": 12.25, "GOOGLEMAPS": "https://www.google.com/maps/search/?api=1&query=Spiaggia+Libera+Grigia+Lungomare+Duca+degli+Abruzzi+72%2C+Roma" }, "geometry": { "type": "Point", "coordinates": [ 12.2532222, 41.7370556 ] } },
{ "type": "Feature", "properties": { "fid": 2, "NOME": "Spiaggia Libera Cotto", "INDIRIZZO": "Lungomare Duca degli Abruzzi, Pza Willy Ferrero", "ZONA": "Ostia Ponente", "LAT": 41.74, "LON": 12.26, "GOOGLEMAPS": "https://www.google.com/maps/search/?api=1&query=Spiaggia+Libera+Cotto+Lungomare+Duca+degli+Abruzzi+Piazza+Willy+Ferrero%2C+Roma" }, "geometry": { "type": "Point", "coordinates": [ 12.256, 41.736 ] } },
{ "type": "Feature", "properties": { "fid": 3, "NOME": "Spiaggia Libera Ocra", "INDIRIZZO": "Lungomare Duca degli Abruzzi, Via Umberto Cagni", "ZONA": "Ostia Ponente", "LAT": 41.74, "LON": 12.26, "GOOGLEMAPS": "https://www.google.com/maps/search/?api=1&query=Spiaggia+Libera+Ocra+Lungomare+Duca+degli+Abruzzi+Via+Umberto+Cagni%2C+Roma" }, "geometry": { "type": "Point", "coordinates": [ 12.258762, 41.7352861 ] } },
{ "type": "Feature", "properties": { "fid": 4, "NOME": "Spiaggia Libera Senape", "INDIRIZZO": "Lungomare Duca degli Abruzzi, Via del Sommergibile", "ZONA": "Ostia Ponente", "LAT": 41.73, "LON": 12.26, "GOOGLEMAPS": "https://www.google.com/maps/search/?api=1&query=Spiaggia+Libera+Senape+Lungomare+Duca+degli+Abruzzi+Via+del+Sommergibile%2C+Roma" }, "geometry": { "type": "Point", "coordinates": [ 12.260542, 41.7346903 ] } },
{ "type": "Feature", "properties": { "fid": 5, "NOME": "Spiaggia Libera Limone", "INDIRIZZO": "Lungomare Duca degli Abruzzi, Viale del Sommergibile", "ZONA": "Ostia Ponente", "LAT": 41.73, "LON": 12.26, "GOOGLEMAPS": "https://www.google.com/maps/search/?api=1&query=Spiaggia+Libera+Limone+Lungomare+Duca+degli+Abruzzi+Viale+del+Sommergibile%2C+Roma" }, "geometry": { "type": "Point", "coordinates": [ 12.2617, 41.7343 ] } },
{ "type": "Feature", "properties": { "fid": 6, "NOME": "Spiaggia Libera Rosa", "INDIRIZZO": "Lungomare Duca degli Abruzzi, Via dell'Idrovolante", "ZONA": "Ostia Ponente", "LAT": 41.73, "LON": 12.26, "GOOGLEMAPS": "https://www.google.com/maps/search/?api=1&query=Spiaggia+Libera+Rosa+Lungomare+Duca+degli+Abruzzi+Via+dell%27Idrovolante%2C+Roma" }, "geometry": { "type": "Point", "coordinates": [ 12.2624387, 41.7340611 ] } },
{ "type": "Feature", "properties": { "fid": 7, "NOME": "Spiaggia Libera Sabbia", "INDIRIZZO": "Lungomare Duca degli Abruzzi, Pza Scipione Africano", "ZONA": "Ostia Ponente", "LAT": 41.73, "LON": 12.26, "GOOGLEMAPS": "https://www.google.com/maps/search/?api=1&query=Spiaggia+Libera+Sabbia+Lungomare+Duca+degli+Abruzzi+Piazza+Scipione+Africano%2C+Roma" }, "geometry": { "type": "Point", "coordinates": [ 12.2635, 41.7337 ] } },
{ "type": "Feature", "properties": { "fid": 8, "NOME": "Spiaggia Libera Verde", "INDIRIZZO": "Lungomare Paolo Toscanelli, Via Angiolo Pasqui", "ZONA": "Ostia Centro", "LAT": 41.73, "LON": 12.27, "GOOGLEMAPS": "https://www.google.com/maps/search/?api=1&query=Spiaggia+Libera+Verde+Lungomare+Paolo+Toscanelli+Via+Angiolo+Pasqui%2C+Roma" }, "geometry": { "type": "Point", "coordinates": [ 12.2654914, 41.7330643 ] } },
{ "type": "Feature", "properties": { "fid": 9, "NOME": "Spiaggia Libera Gialla", "INDIRIZZO": "Lungomare Paolo Toscanelli, civ. 137", "ZONA": "Ostia Centro", "LAT": 41.73, "LON": 12.27, "GOOGLEMAPS": "https://www.google.com/maps/search/?api=1&query=Spiaggia+Libera+Gialla+Lungomare+Paolo+Toscanelli+137%2C+Roma" }, "geometry": { "type": "Point", "coordinates": [ 12.2711331, 41.7312869 ] } },
{ "type": "Feature", "properties": { "fid": 10, "NOME": "Spiaggia Libera Sposi", "INDIRIZZO": "Lungomare Paolo Toscanelli, civ. 141", "ZONA": "Ostia Centro", "LAT": 41.73, "LON": 12.27, "GOOGLEMAPS": "https://www.google.com/maps/search/?api=1&query=Spiaggia+Libera+Sposi+Lungomare+Paolo+Toscanelli+141%2C+Roma" }, "geometry": { "type": "Point", "coordinates": [ 12.2695, 41.7317 ] } },
{ "type": "Feature", "properties": { "fid": 11, "NOME": "Spiaggia Libera Bahia", "INDIRIZZO": "Lungomare Paolo Toscanelli, Largo delle Sirene", "ZONA": "Ostia Centro", "LAT": 41.73, "LON": 12.27, "GOOGLEMAPS": "https://www.google.com/maps/search/?api=1&query=Spiaggia+Libera+Bahia+Lungomare+Paolo+Toscanelli+Largo+delle+Sirene%2C+Roma" }, "geometry": { "type": "Point", "coordinates": [ 12.272, 41.7305 ] } },
{ "type": "Feature", "properties": { "fid": 12, "NOME": "Spiaggia Libera Grigio", "INDIRIZZO": "Piazza Sirio", "ZONA": "Ostia Centro", "LAT": 41.73, "LON": 12.28, "GOOGLEMAPS": "https://www.google.com/maps/search/?api=1&query=Spiaggia+Libera+Grigio+Piazza+Sirio%2C+Roma" }, "geometry": { "type": "Point", "coordinates": [ 12.279, 41.728 ] } },
{ "type": "Feature", "properties": { "fid": 13, "NOME": "Spiaggia Libera Il Curvone", "INDIRIZZO": "Lungomare Paolo Toscanelli, civ. 15", "ZONA": "Ostia Levante", "LAT": 41.73, "LON": 12.29, "GOOGLEMAPS": "https://www.google.com/maps/search/?api=1&query=Spiaggia+Libera+Il+Curvone+Lungomare+Paolo+Toscanelli+15%2C+Roma" }, "geometry": { "type": "Point", "coordinates": [ 12.2859643, 41.7256472 ] } },
{ "type": "Feature", "properties": { "fid": 14, "NOME": "Spiaggia Libera Blu B", "INDIRIZZO": "Lungomare Duilio, civ. 40", "ZONA": "Ostia Levante", "LAT": 41.72, "LON": 12.29, "GOOGLEMAPS": "https://www.google.com/maps/search/?api=1&query=Spiaggia+Libera+Blu+B+Lungomare+Duilio+40%2C+Roma" }, "geometry": { "type": "Point", "coordinates": [ 12.2912, 41.7238 ] } },
{ "type": "Feature", "properties": { "fid": 15, "NOME": "Spiaggia Libera Hakuna Matata", "INDIRIZZO": "Lungomare Duilio, Via Bucintoro", "ZONA": "Ostia Levante", "LAT": 41.72, "LON": 12.3, "GOOGLEMAPS": "https://www.google.com/maps/search/?api=1&query=Spiaggia+Libera+Hakuna+Matata+Lungomare+Duilio+Via+Bucintoro%2C+Roma" }, "geometry": { "type": "Point", "coordinates": [ 12.2956219, 41.7220215 ] } },
{ "type": "Feature", "properties": { "fid": 16, "NOME": "Spiaggia Libera S.P.Q.R.", "INDIRIZZO": "Lungomare Amerigo Vespucci, st. Cristoforo Colombo", "ZONA": "Ostia Levante", "LAT": 41.71, "LON": 12.32, "GOOGLEMAPS": "https://www.google.com/maps/search/?api=1&query=Spiaggia+Libera+SPQR+Lungomare+Amerigo+Vespucci%2C+Roma" }, "geometry": { "type": "Point", "coordinates": [ 12.3204974, 41.7120232 ] } },
{ "type": "Feature", "properties": { "fid": 17, "NOME": "Spiaggia Libera Bianca", "INDIRIZZO": "Lungomare Amerigo Vespucci, civ. 142", "ZONA": "Ostia Levante", "LAT": 41.7, "LON": 12.34, "GOOGLEMAPS": "https://www.google.com/maps/search/?api=1&query=Spiaggia+Libera+Bianca+Lungomare+Amerigo+Vespucci+142%2C+Roma" }, "geometry": { "type": "Point", "coordinates": [ 12.3396919, 41.7044602 ] } },
{ "type": "Feature", "properties": { "fid": 18, "NOME": "Castelporziano Cancello 1", "INDIRIZZO": "Via Litoranea, Castelporziano", "ZONA": "Castelporziano", "LAT": 41.68, "LON": 12.37, "GOOGLEMAPS": "https://www.google.com/maps/search/?api=1&query=Spiaggia+Libera+Castelporziano+Cancello+1+Via+Litoranea%2C+Roma" }, "geometry": { "type": "Point", "coordinates": [ 12.3735, 41.6845 ] } },
{ "type": "Feature", "properties": { "fid": 19, "NOME": "Castelporziano Cancello 2", "INDIRIZZO": "Via Litoranea, 1350", "ZONA": "Castelporziano", "LAT": 41.68, "LON": 12.38, "GOOGLEMAPS": "https://www.google.com/maps/search/?api=1&query=Spiaggia+Libera+Castelporziano+Cancello+2+Via+Litoranea+1350%2C+Roma" }, "geometry": { "type": "Point", "coordinates": [ 12.3809548, 41.6805967 ] } },
{ "type": "Feature", "properties": { "fid": 20, "NOME": "Castelporziano Cancello 6", "INDIRIZZO": "Via Litoranea, Castelporziano", "ZONA": "Castelporziano", "LAT": 41.68, "LON": 12.39, "GOOGLEMAPS": "https://www.google.com/maps/search/?api=1&query=Spiaggia+Libera+Castelporziano+Cancello+6+Via+Litoranea%2C+Roma" }, "geometry": { "type": "Point", "coordinates": [ 12.3891818, 41.6751206 ] } },
{ "type": "Feature", "properties": { "fid": 21, "NOME": "Castelporziano Cancello 7", "INDIRIZZO": "Via Litoranea, 7", "ZONA": "Castelporziano", "LAT": 41.67, "LON": 12.39, "GOOGLEMAPS": "https://www.google.com/maps/search/?api=1&query=Spiaggia+Libera+Castelporziano+Cancello+7+Via+Litoranea+7%2C+Roma" }, "geometry": { "type": "Point", "coordinates": [ 12.3911287, 41.6738026 ] } }
]
}
